[{"OBJECT_NAME":"STARLINK-4047","OBJECT_ID":"2022-086B","EPOCH":"2026-03-09T14:37:24.079008","MEAN_MOTION":15.08828696,"ECCENTRICITY":0.0001161,"INCLINATION":53.2168,"RA_OF_ASC_NODE":204.1723,"ARG_OF_PERICENTER":81.9547,"MEAN_ANOMALY":278.1577,"EPHEMERIS_TYPE":0,"CLASSIFICATION_TYPE":"U","NORAD_CAT_ID":53243,"ELEMENT_SET_NO":999,"REV_AT_EPOCH":20125,"BSTAR":-0.00018519,"MEAN_MOTION_DOT":-3.233e-5,"MEAN_MOTION_DDOT":0},{"OBJECT_NAME":"CZ-4C DEB","OBJECT_ID":"2018-031H","EPOCH":"2026-03-09T10:10:58.582560","MEAN_MOTION":15.14033759,"ECCENTRICITY":0.00199639,"INCLINATION":98.1663,"RA_OF_ASC_NODE":242.9335,"ARG_OF_PERICENTER":272.748,"MEAN_ANOMALY":87.1465,"EPHEMERIS_TYPE":0,"CLASSIFICATION_TYPE":"U","NORAD_CAT_ID":43266,"ELEMENT_SET_NO":999,"REV_AT_EPOCH":43166,"BSTAR":0.00079064643,"MEAN_MOTION_DOT":0.00014379,"MEAN_MOTION_DDOT":0}]
